{"type": "FeatureCollection", "features": [ {"type": "Feature", "properties": {"norad_id": 66805, "name": "STARLINK-36049", "group": "last-30-days", "lat": -8.884442483414729, "lon": -117.92224827248064, "alt_km": 306.97680968526856, "timestamp": "2025-12-12T18:57:42.886787+00:00", "meta": {"OBJECT_NAME": "STARLINK-36049", "OBJECT_ID": "2025-278Q", "EPOCH": "2025-12-12T05:26:10.995360", "MEAN_MOTION": 15.88816833, "ECCENTRICITY": 0.00017426, "INCLINATION": 42.9974, "RA_OF_ASC_NODE": 255.2249, "ARG_OF_PERICENTER": 298.4406, "MEAN_ANOMALY": 61.6293, "EPHEMERIS_TYPE": 0, "CLASSIFICATION_TYPE": "U", "NORAD_CAT_ID": 66805, "ELEMENT_SET_NO": 999, "REV_AT_EPOCH": 175, "BSTAR": -0.0015660456, "MEAN_MOTION_DOT": -0.00437471, "MEAN_MOTION_DDOT": 0}, "tle": {"line1": "1 66805U 25278Q   25346.22651615 -.00437471  00000+0 -15660-2 0  9994", "line2": "2 66805  42.9974 255.2249 0001742 298.4406  61.6293 15.88816833  1759"}}, "geometry": {"type": "Point", "coordinates": [-117.92224827248064, -8.884442483414729]}}, {"type": "Feature", "properties": {"norad_id": 66806, "name": "STARLINK-36069", "group": "last-30-days", "lat": -10.566664259037537, "lon": -119.8054391279794, "alt_km": 307.1205855827029, "timestamp": "2025-12-12T18:57:42.886799+00:00", "meta": {"OBJECT_NAME": "STARLINK-36069", "OBJECT_ID": "2025-278R", "EPOCH": "2025-12-12T05:26:49.020000", "MEAN_MOTION": 15.8880637, "ECCENTRICITY": 0.00016959, "INCLINATION": 42.9981, "RA_OF_ASC_NODE": 255.2297, "ARG_OF_PERICENTER": 296.9461, "MEAN_ANOMALY": 63.124, "EPHEMERIS_TYPE": 0, "CLASSIFICATION_TYPE": "U", "NORAD_CAT_ID": 66806, "ELEMENT_SET_NO": 999, "REV_AT_EPOCH": 175, "BSTAR": -0.0014748642, "MEAN_MOTION_DOT": -0.00412927, "MEAN_MOTION_DDOT": 0}, "tle": {"line1": "1 66806U 25278R   25346.22695625 -.00412927  00000+0 -14749-2 0  9990", "line2": "2 66806  42.9981 255.2297 0001695 296.9461  63.1240 15.88806370  1756"}}, "geometry": {"type": "Point", "coordinates": [-119.8054391279794, -10.566664259037537]}}, {"type": "Feature", "properties": {"norad_id": 66807, "name": "STARLINK-36000", "group": "last-30-days", "lat": -5.822758693412128, "lon": -114.55869399820844, "alt_km": 307.2155829034582, "timestamp": "2025-12-12T18:57:42.886814+00:00", "meta": {"OBJECT_NAME": "STARLINK-36000", "OBJECT_ID": "2025-278S", "EPOCH": "2025-12-12T05:25:02.181216", "MEAN_MOTION": 15.88844569, "ECCENTRICITY": 0.00023608, "INCLINATION": 42.9977, "RA_OF_ASC_NODE": 255.2186, "ARG_OF_PERICENTER": 273.647, "MEAN_ANOMALY": 86.4134, "EPHEMERIS_TYPE": 0, "CLASSIFICATION_TYPE": "U", "NORAD_CAT_ID": 66807, "ELEMENT_SET_NO": 999, "REV_AT_EPOCH": 175, "BSTAR": -0.0018147519, "MEAN_MOTION_DOT": -0.0050397, "MEAN_MOTION_DDOT": 0}, "tle": {"line1": "1 66807U 25278S   25346.22571969 -.00503970  00000+0 -18148-2 0  9991", "line2": "2 66807  42.9977 255.2186 0002360 273.6470  86.4134 15.88844569  1753"}}, "geometry": {"type": "Point", "coordinates": [-114.55869399820844, -5.822758693412128]}}, {"type": "Feature", "properties": {"norad_id": 66808, "name": "STARLINK-36071", "group": "last-30-days", "lat": -4.252787701158497, "lon": -112.85888491121507, "alt_km": 306.8562727213539, "timestamp": "2025-12-12T18:57:42.886826+00:00", "meta": {"OBJECT_NAME": "STARLINK-36071", "OBJECT_ID": "2025-278T", "EPOCH": "2025-12-12T05:24:29.270592", "MEAN_MOTION": 15.888928, "ECCENTRICITY": 0.00022534, "INCLINATION": 42.9973, "RA_OF_ASC_NODE": 255.2153, "ARG_OF_PERICENTER": 274.5533, "MEAN_ANOMALY": 85.5084, "EPHEMERIS_TYPE": 0, "CLASSIFICATION_TYPE": "U", "NORAD_CAT_ID": 66808, "ELEMENT_SET_NO": 999, "REV_AT_EPOCH": 175, "BSTAR": -0.0017067611, "MEAN_MOTION_DOT": -0.00476588, "MEAN_MOTION_DDOT": 0}, "tle": {"line1": "1 66808U 25278T   25346.22533878 -.00476588  00000+0 -17068-2 0  9993", "line2": "2 66808  42.9973 255.2153 0002253 274.5533  85.5084 15.88892800  1750"}}, "geometry": {"type": "Point", "coordinates": [-112.85888491121507, -4.252787701158497]}}, {"type": "Feature", "properties": {"norad_id": 66809, "name": "STARLINK-35979", "group": "last-30-days", "lat": 0.8780298852576949, "lon": -107.35788745977344, "alt_km": 306.7638331937869, "timestamp": "2025-12-12T18:57:42.886836+00:00", "meta": {"OBJECT_NAME": "STARLINK-35979", "OBJECT_ID": "2025-278U", "EPOCH": "2025-12-12T05:22:35.252832", "MEAN_MOTION": 15.88916508, "ECCENTRICITY": 0.00022266, "INCLINATION": 42.9973, "RA_OF_ASC_NODE": 255.2043, "ARG_OF_PERICENTER": 266.91, "MEAN_ANOMALY": 93.152, "EPHEMERIS_TYPE": 0, "CLASSIFICATION_TYPE": "U", "NORAD_CAT_ID": 66809, "ELEMENT_SET_NO": 999, "REV_AT_EPOCH": 175, "BSTAR": -0.0019199096, "MEAN_MOTION_DOT": -0.00533324, "MEAN_MOTION_DDOT": 0}, "tle": {"line1": "1 66809U 25278U   25346.22401913 -.00533324  00000+0 -19199-2 0  9997", "line2": "2 66809  42.9973 255.2043 0002226 266.9100  93.1520 15.88916508  1756"}}, "geometry": {"type": "Point", "coordinates": [-107.35788745977344, 0.8780298852576949]}}, {"type": "Feature", "properties": {"norad_id": 66810, "name": "STARLINK-36046", "group": "last-30-days", "lat": -2.5426890265164275, "lon": -111.01887408245798, "alt_km": 306.8489733245988, "timestamp": "2025-12-12T18:57:42.886846+00:00", "meta": {"OBJECT_NAME": "STARLINK-36046", "OBJECT_ID": "2025-278V", "EPOCH": "2025-12-12T05:23:50.616960", "MEAN_MOTION": 15.88887476, "ECCENTRICITY": 0.00021298, "INCLINATION": 42.9975, "RA_OF_ASC_NODE": 255.2121, "ARG_OF_PERICENTER": 274.4201, "MEAN_ANOMALY": 85.6429, "EPHEMERIS_TYPE": 0, "CLASSIFICATION_TYPE": "U", "NORAD_CAT_ID": 66810, "ELEMENT_SET_NO": 999, "REV_AT_EPOCH": 175, "BSTAR": -0.0018180189, "MEAN_MOTION_DOT": -0.00505822, "MEAN_MOTION_DDOT": 0}, "tle": {"line1": "1 66810U 25278V   25346.22489140 -.00505822  00000+0 -18180-2 0  9998", "line2": "2 66810  42.9975 255.2121 0002129 274.4201  85.6429 15.88887476  1750"}}, "geometry": {"type": "Point", "coordinates": [-111.01887408245798, -2.5426890265164275]}}, {"type": "Feature", "properties": {"norad_id": 66811, "name": "STARLINK-36045", "group": "last-30-days", "lat": -0.5774747584980239, "lon": -108.91475240788398, "alt_km": 304.83994767028526, "timestamp": "2025-12-12T18:57:42.886858+00:00", "meta": {"OBJECT_NAME": "STARLINK-36045", "OBJECT_ID": "2025-278W", "EPOCH": "2025-12-12T05:23:11.380128", "MEAN_MOTION": 15.88963979, "ECCENTRICITY": 0.00022051, "INCLINATION": 42.9974, "RA_OF_ASC_NODE": 255.2078, "ARG_OF_PERICENTER": 339.2321, "MEAN_ANOMALY": 20.8464, "EPHEMERIS_TYPE": 0, "CLASSIFICATION_TYPE": "U", "NORAD_CAT_ID": 66811, "ELEMENT_SET_NO": 999, "REV_AT_EPOCH": 175, "BSTAR": -0.0014178977, "MEAN_MOTION_DOT": -0.0040078, "MEAN_MOTION_DDOT": 0}, "tle": {"line1": "1 66811U 25278W   25346.22443727 -.00400780  00000+0 -14179-2 0  9991", "line2": "2 66811  42.9974 255.2078 0002205 339.2321  20.8464 15.88963979  1752"}}, "geometry": {"type": "Point", "coordinates": [-108.91475240788398, -0.5774747584980239]}}, {"type": "Feature", "properties": {"norad_id": 66812, "name": "STARLINK-36054", "group": "last-30-days", "lat": 2.3842213091832707, "lon": -105.74497887361935, "alt_km": 306.36616675993446, "timestamp": "2025-12-12T18:57:42.886868+00:00", "meta": {"OBJECT_NAME": "STARLINK-36054", "OBJECT_ID": "2025-278X", "EPOCH": "2025-12-12T05:22:03.449856", "MEAN_MOTION": 15.88954526, "ECCENTRICITY": 0.00023043, "INCLINATION": 42.9975, "RA_OF_ASC_NODE": 255.201, "ARG_OF_PERICENTER": 269.7066, "MEAN_ANOMALY": 90.3544, "EPHEMERIS_TYPE": 0, "CLASSIFICATION_TYPE": "U", "NORAD_CAT_ID": 66812, "ELEMENT_SET_NO": 999, "REV_AT_EPOCH": 175, "BSTAR": -0.0018403907, "MEAN_MOTION_DOT": -0.00513387, "MEAN_MOTION_DDOT": 0}, "tle": {"line1": "1 66812U 25278X   25346.22365104 -.00513387  00000+0 -18404-2 0  9997", "line2": "2 66812  42.9975 255.2010 0002304 269.7066  90.3544 15.88954526  1752"}}, "geometry": {"type": "Point", "coordinates": [-105.74497887361935, 2.3842213091832707]}}, {"type": "Feature", "properties": {"norad_id": 66813, "name": "STARLINK-36042", "group": "last-30-days", "lat": 4.3671555313012975, "lon": -103.61177094278385, "alt_km": 304.5074060513507, "timestamp": "2025-12-12T18:57:42.886880+00:00", "meta": {"OBJECT_NAME": "STARLINK-36042", "OBJECT_ID": "2025-278Y", "EPOCH": "2025-12-12T05:21:32.806368", "MEAN_MOTION": 15.89186521, "ECCENTRICITY": 0.00024837, "INCLINATION": 42.9974, "RA_OF_ASC_NODE": 255.1984, "ARG_OF_PERICENTER": 266.4093, "MEAN_ANOMALY": 93.6497, "EPHEMERIS_TYPE": 0, "CLASSIFICATION_TYPE": "U", "NORAD_CAT_ID": 66813, "ELEMENT_SET_NO": 999, "REV_AT_EPOCH": 175, "BSTAR": -0.00061702862, "MEAN_MOTION_DOT": -0.00181064, "MEAN_MOTION_DDOT": 0}, "tle": {"line1": "1 66813U 25278Y   25346.22329637 -.00181064  00000+0 -61703-3 0  9993", "line2": "2 66813  42.9974 255.1984 0002483 266.4093  93.6497 15.89186521  1759"}}, "geometry": {"type": "Point", "coordinates": [-103.61177094278385, 4.3671555313012975]}}, {"type": "Feature", "properties": {"norad_id": 66814, "name": "STARLINK-35984", "group": "last-30-days", "lat": 14.80523269945789, "lon": -91.87358255471172, "alt_km": 303.1396190263522, "timestamp": "2025-12-12T18:57:42.886890+00:00", "meta": {"OBJECT_NAME": "STARLINK-35984", "OBJECT_ID": "2025-278Z", "EPOCH": "2025-12-12T05:17:39.039072", "MEAN_MOTION": 15.89263924, "ECCENTRICITY": 0.00022268, "INCLINATION": 42.9971, "RA_OF_ASC_NODE": 255.1754, "ARG_OF_PERICENTER": 272.7868, "MEAN_ANOMALY": 87.2751, "EPHEMERIS_TYPE": 0, "CLASSIFICATION_TYPE": "U", "NORAD_CAT_ID": 66814, "ELEMENT_SET_NO": 999, "REV_AT_EPOCH": 175, "BSTAR": -0.00078876214, "MEAN_MOTION_DOT": -0.00230906, "MEAN_MOTION_DDOT": 0}, "tle": {"line1": "1 66814U 25278Z   25346.22059073 -.00230906  00000+0 -78876-3 0  9997", "line2": "2 66814  42.9971 255.1754 0002226 272.7868  87.2751 15.89263924  1752"}}, "geometry": {"type": "Point", "coordinates": [-91.87358255471172, 14.80523269945789]}}]}